CCSDS_OMM_VERS = 2.0
CREATION_DATE  = 
ORIGINATOR     = 

OBJECT_NAME    = ISS OBJECT XY
OBJECT_ID      = 1998-067XY
CENTER_NAME    = EARTH
REF_FRAME      = TEME
TIME_SYSTEM    = UTC
MEAN_ELEMENT_THEORY = SGP/SGP4

EPOCH          = 2026-03-12T07:54:05.548032
MEAN_MOTION    = 15.64236569
ECCENTRICITY   = .00033374
INCLINATION    = 51.6273
RA_OF_ASC_NODE = 53.7798
ARG_OF_PERICENTER = 105.1050
MEAN_ANOMALY   = 255.0314

EPHEMERIS_TYPE = 0
CLASSIFICATION_TYPE = U
NORAD_CAT_ID   = 66912
ELEMENT_SET_NO = 999
REV_AT_EPOCH   = 1556
BSTAR          = .10605442E-2
MEAN_MOTION_DOT = .103874E-2
MEAN_MOTION_DDOT = 0

CCSDS_OMM_VERS = 2.0
CREATION_DATE  = 
ORIGINATOR     = 

OBJECT_NAME    = KNACKSAT-2
OBJECT_ID      = 1998-067XZ
CENTER_NAME    = EARTH
REF_FRAME      = TEME
TIME_SYSTEM    = UTC
MEAN_ELEMENT_THEORY = SGP/SGP4

EPOCH          = 2026-03-12T13:27:39.676896
MEAN_MOTION    = 15.52078501
ECCENTRICITY   = .00095103
INCLINATION    = 51.6314
RA_OF_ASC_NODE = 57.5801
ARG_OF_PERICENTER = 196.2104
MEAN_ANOMALY   = 163.8583

EPHEMERIS_TYPE = 0
CLASSIFICATION_TYPE = U
NORAD_CAT_ID   = 67683
ELEMENT_SET_NO = 999
REV_AT_EPOCH   = 523
BSTAR          = .69040294E-3
MEAN_MOTION_DOT = .4226E-3
MEAN_MOTION_DDOT = 0

CCSDS_OMM_VERS = 2.0
CREATION_DATE  = 
ORIGINATOR     = 

OBJECT_NAME    = GXIBA-1
OBJECT_ID      = 1998-067YA
CENTER_NAME    = EARTH
REF_FRAME      = TEME
TIME_SYSTEM    = UTC
MEAN_ELEMENT_THEORY = SGP/SGP4

EPOCH          = 2026-03-12T08:03:46.954368
MEAN_MOTION    = 15.54791236
ECCENTRICITY   = .001132
INCLINATION    = 51.6305
RA_OF_ASC_NODE = 58.3289
ARG_OF_PERICENTER = 184.6561
MEAN_ANOMALY   = 175.4326

EPHEMERIS_TYPE = 0
CLASSIFICATION_TYPE = U
NORAD_CAT_ID   = 67684
ELEMENT_SET_NO = 999
REV_AT_EPOCH   = 520
BSTAR          = .12676167E-2
MEAN_MOTION_DOT = .86646E-3
MEAN_MOTION_DDOT = 0

CCSDS_OMM_VERS = 2.0
CREATION_DATE  = 
ORIGINATOR     = 

OBJECT_NAME    = CORAL
OBJECT_ID      = 1998-067YB
CENTER_NAME    = EARTH
REF_FRAME      = TEME
TIME_SYSTEM    = UTC
MEAN_ELEMENT_THEORY = SGP/SGP4

EPOCH          = 2026-03-12T08:42:11.227680
MEAN_MOTION    = 15.52456287
ECCENTRICITY   = .00114126
INCLINATION    = 51.6310
RA_OF_ASC_NODE = 58.5071
ARG_OF_PERICENTER = 191.9545
MEAN_ANOMALY   = 168.1176

EPHEMERIS_TYPE = 0
CLASSIFICATION_TYPE = U
NORAD_CAT_ID   = 67685
ELEMENT_SET_NO = 999
REV_AT_EPOCH   = 520
BSTAR          = .79542964E-3
MEAN_MOTION_DOT = .49518E-3
MEAN_MOTION_DDOT = 0

CCSDS_OMM_VERS = 2.0
CREATION_DATE  = 
ORIGINATOR     = 

OBJECT_NAME    = ISS OBJECT YC
OBJECT_ID      = 1998-067YC
CENTER_NAME    = EARTH
REF_FRAME      = TEME
TIME_SYSTEM    = UTC
MEAN_ELEMENT_THEORY = SGP/SGP4

EPOCH          = 2026-03-12T05:27:31.031136
MEAN_MOTION    = 15.53033344
ECCENTRICITY   = .00081239
INCLINATION    = 51.6318
RA_OF_ASC_NODE = 59.1061
ARG_OF_PERICENTER = 159.6132
MEAN_ANOMALY   = 200.5184

EPHEMERIS_TYPE = 0
CLASSIFICATION_TYPE = U
NORAD_CAT_ID   = 67686
ELEMENT_SET_NO = 999
REV_AT_EPOCH   = 518
BSTAR          = .88433856E-3
MEAN_MOTION_DOT = .56249E-3
MEAN_MOTION_DDOT = 0

CCSDS_OMM_VERS = 2.0
CREATION_DATE  = 
ORIGINATOR     = 

OBJECT_NAME    = LEOPARD
OBJECT_ID      = 1998-067YD
CENTER_NAME    = EARTH
REF_FRAME      = TEME
TIME_SYSTEM    = UTC
MEAN_ELEMENT_THEORY = SGP/SGP4

EPOCH          = 2026-03-12T08:45:41.125248
MEAN_MOTION    = 15.52254549
ECCENTRICITY   = .0008019
INCLINATION    = 51.6322
RA_OF_ASC_NODE = 58.5246
ARG_OF_PERICENTER = 163.8991
MEAN_ANOMALY   = 196.2255

EPHEMERIS_TYPE = 0
CLASSIFICATION_TYPE = U
NORAD_CAT_ID   = 67687
ELEMENT_SET_NO = 999
REV_AT_EPOCH   = 512
BSTAR          = .756589E-3
MEAN_MOTION_DOT = .46655E-3
MEAN_MOTION_DDOT = 0

CCSDS_OMM_VERS = 2.0
CREATION_DATE  = 
ORIGINATOR     = 

OBJECT_NAME    = ISS OBJECT YE
OBJECT_ID      = 1998-067YE
CENTER_NAME    = EARTH
REF_FRAME      = TEME
TIME_SYSTEM    = UTC
MEAN_ELEMENT_THEORY = SGP/SGP4

EPOCH          = 2026-03-12T10:09:45.457056
MEAN_MOTION    = 15.52782613
ECCENTRICITY   = .00080477
INCLINATION    = 51.6315
RA_OF_ASC_NODE = 58.1651
ARG_OF_PERICENTER = 160.8943
MEAN_ANOMALY   = 199.2351

EPHEMERIS_TYPE = 0
CLASSIFICATION_TYPE = U
NORAD_CAT_ID   = 67688
ELEMENT_SET_NO = 999
REV_AT_EPOCH   = 513
BSTAR          = .86834318E-3
MEAN_MOTION_DOT = .54709E-3
MEAN_MOTION_DDOT = 0

CCSDS_OMM_VERS = 2.0
CREATION_DATE  = 
ORIGINATOR     = 

OBJECT_NAME    = CREW DRAGON 12
OBJECT_ID      = 2026-031A
CENTER_NAME    = EARTH
REF_FRAME      = TEME
TIME_SYSTEM    = UTC
MEAN_ELEMENT_THEORY = SGP/SGP4

EPOCH          = 2026-03-12T10:00:54.608544
MEAN_MOTION    = 15.48601092
ECCENTRICITY   = .00079757
INCLINATION    = 51.6324
RA_OF_ASC_NODE = 58.8700
ARG_OF_PERICENTER = 184.3112
MEAN_ANOMALY   = 175.7809

EPHEMERIS_TYPE = 0
CLASSIFICATION_TYPE = U
NORAD_CAT_ID   = 67796
ELEMENT_SET_NO = 999
REV_AT_EPOCH   = 55665
BSTAR          = .18173156E-3
MEAN_MOTION_DOT = .9444E-4
MEAN_MOTION_DDOT = 0

