ISS OBJECT XY           
1 66912U 98067XY  26071.32923088  .00103874  00000+0  10605-2 0  9991
2 66912  51.6273  53.7798 0003337 105.1050 255.0314 15.64236569 15561
KNACKSAT-2              
1 67683U 98067XZ  26071.56087589  .00042260  00000+0  69040-3 0  9999
2 67683  51.6314  57.5801 0009510 196.2104 163.8583 15.52078501  5234
GXIBA-1                 
1 67684U 98067YA  26071.33596012  .00086646  00000+0  12676-2 0  9999
2 67684  51.6305  58.3289 0011320 184.6561 175.4326 15.54791236  5204
CORAL                   
1 67685U 98067YB  26071.36262995  .00049518  00000+0  79543-3 0  9997
2 67685  51.6310  58.5071 0011412 191.9545 168.1176 15.52456287  5201
ISS OBJECT YC           
1 67686U 98067YC  26071.22744249  .00056249  00000+0  88434-3 0  9998
2 67686  51.6318  59.1061 0008123 159.6132 200.5184 15.53033344  5187
LEOPARD                 
1 67687U 98067YD  26071.36505932  .00046655  00000+0  75659-3 0  9993
2 67687  51.6322  58.5246 0008019 163.8991 196.2255 15.52254549  5120
ISS OBJECT YE           
1 67688U 98067YE  26071.42344279  .00054709  00000+0  86834-3 0  9992
2 67688  51.6315  58.1651 0008047 160.8943 199.2351 15.52782613  5133
CREW DRAGON 12          
1 67796U 26031A   26071.41729871  .00009444  00000+0  18173-3 0  9995
2 67796  51.6324  58.8700 0007975 184.3112 175.7809 15.48601092556654
